[{"OBJECT_NAME":"STARLINK-37263","OBJECT_ID":"2026-070C","EPOCH":"2026-04-19T06:00:02.000160","MEAN_MOTION":15.80813755,"ECCENTRICITY":0.00011781,"INCLINATION":53.1585,"RA_OF_ASC_NODE":181.0874,"ARG_OF_PERICENTER":110.1712,"MEAN_ANOMALY":79.1042,"EPHEMERIS_TYPE":0,"CLASSIFICATION_TYPE":"U","NORAD_CAT_ID":68544,"ELEMENT_SET_NO":999,"REV_AT_EPOCH":390,"BSTAR":0.00089908393,"MEAN_MOTION_DOT":0.00180004,"MEAN_MOTION_DDOT":0},{"OBJECT_NAME":"STARLINK-37289","OBJECT_ID":"2026-070D","EPOCH":"2026-04-19T06:00:02.000160","MEAN_MOTION":15.80731468,"ECCENTRICITY":0.00014509,"INCLINATION":53.1585,"RA_OF_ASC_NODE":181.0963,"ARG_OF_PERICENTER":55.6919,"MEAN_ANOMALY":129.2745,"EPHEMERIS_TYPE":0,"CLASSIFICATION_TYPE":"U","NORAD_CAT_ID":68545,"ELEMENT_SET_NO":999,"REV_AT_EPOCH":390,"BSTAR":0.00064030101,"MEAN_MOTION_DOT":0.00126715,"MEAN_MOTION_DDOT":0},{"OBJECT_NAME":"STARLINK-37290","OBJECT_ID":"2026-070E","EPOCH":"2026-04-19T06:00:02.000160","MEAN_MOTION":15.80737709,"ECCENTRICITY":0.00013797,"INCLINATION":53.1583,"RA_OF_ASC_NODE":181.0785,"ARG_OF_PERICENTER":71.2178,"MEAN_ANOMALY":122.302,"EPHEMERIS_TYPE":0,"CLASSIFICATION_TYPE":"U","NORAD_CAT_ID":68546,"ELEMENT_SET_NO":999,"REV_AT_EPOCH":390,"BSTAR":0.0008185461,"MEAN_MOTION_DOT":0.00162918,"MEAN_MOTION_DDOT":0},{"OBJECT_NAME":"STARLINK-37245","OBJECT_ID":"2026-070F","EPOCH":"2026-04-19T06:00:02.000160","MEAN_MOTION":15.80749506,"ECCENTRICITY":0.00012617,"INCLINATION":53.1584,"RA_OF_ASC_NODE":181.0609,"ARG_OF_PERICENTER":67.2273,"MEAN_ANOMALY":134.829,"EPHEMERIS_TYPE":0,"CLASSIFICATION_TYPE":"U","NORAD_CAT_ID":68547,"ELEMENT_SET_NO":999,"REV_AT_EPOCH":390,"BSTAR":0.00053251499,"MEAN_MOTION_DOT":0.00105088,"MEAN_MOTION_DDOT":0},{"OBJECT_NAME":"STARLINK-37145","OBJECT_ID":"2026-070G","EPOCH":"2026-04-19T06:00:02.000160","MEAN_MOTION":15.80750631,"ECCENTRICITY":0.00011895,"INCLINATION":53.1585,"RA_OF_ASC_NODE":181.0697,"ARG_OF_PERICENTER":94.3163,"MEAN_ANOMALY":103.4519,"EPHEMERIS_TYPE":0,"CLASSIFICATION_TYPE":"U","NORAD_CAT_ID":68548,"ELEMENT_SET_NO":999,"REV_AT_EPOCH":390,"BSTAR":0.00055295141,"MEAN_MOTION_DOT":0.00109205,"MEAN_MOTION_DDOT":0},{"OBJECT_NAME":"STARLINK-36204","OBJECT_ID":"2026-070H","EPOCH":"2026-04-19T06:00:02.000160","MEAN_MOTION":15.80747193,"ECCENTRICITY":0.00013707,"INCLINATION":53.1584,"RA_OF_ASC_NODE":181.0522,"ARG_OF_PERICENTER":75.6595,"MEAN_ANOMALY":130.6665,"EPHEMERIS_TYPE":0,"CLASSIFICATION_TYPE":"U","NORAD_CAT_ID":68549,"ELEMENT_SET_NO":999,"REV_AT_EPOCH":385,"BSTAR":0.00053636235,"MEAN_MOTION_DOT":0.0010585,"MEAN_MOTION_DDOT":0},{"OBJECT_NAME":"STARLINK-36304","OBJECT_ID":"2026-070J","EPOCH":"2026-04-19T06:00:02.000160","MEAN_MOTION":15.80747798,"ECCENTRICITY":0.00014592,"INCLINATION":53.1584,"RA_OF_ASC_NODE":181.0343,"ARG_OF_PERICENTER":47.9178,"MEAN_ANOMALY":166.952,"EPHEMERIS_TYPE":0,"CLASSIFICATION_TYPE":"U","NORAD_CAT_ID":68550,"ELEMENT_SET_NO":999,"REV_AT_EPOCH":385,"BSTAR":0.00076309819,"MEAN_MOTION_DOT":0.00151707,"MEAN_MOTION_DDOT":0},{"OBJECT_NAME":"STARLINK-37288","OBJECT_ID":"2026-070K","EPOCH":"2026-04-19T06:00:02.000160","MEAN_MOTION":15.80745947,"ECCENTRICITY":0.00014385,"INCLINATION":53.1584,"RA_OF_ASC_NODE":181.0253,"ARG_OF_PERICENTER":104.6727,"MEAN_ANOMALY":114.461,"EPHEMERIS_TYPE":0,"CLASSIFICATION_TYPE":"U","NORAD_CAT_ID":68551,"ELEMENT_SET_NO":999,"REV_AT_EPOCH":390,"BSTAR":0.00079038196,"MEAN_MOTION_DOT":0.00157244,"MEAN_MOTION_DDOT":0},{"OBJECT_NAME":"STARLINK-37295","OBJECT_ID":"2026-070L","EPOCH":"2026-04-19T06:00:02.000160","MEAN_MOTION":15.80747037,"ECCENTRICITY":0.00012126,"INCLINATION":53.1583,"RA_OF_ASC_NODE":181.0433,"ARG_OF_PERICENTER":103.7058,"MEAN_ANOMALY":106.8827,"EPHEMERIS_TYPE":0,"CLASSIFICATION_TYPE":"U","NORAD_CAT_ID":68552,"ELEMENT_SET_NO":999,"REV_AT_EPOCH":390,"BSTAR":0.00078119402,"MEAN_MOTION_DOT":0.00155381,"MEAN_MOTION_DDOT":0},{"OBJECT_NAME":"STARLINK-37254","OBJECT_ID":"2026-070M","EPOCH":"2026-04-19T06:00:02.000160","MEAN_MOTION":15.80744042,"ECCENTRICITY":0.0001183,"INCLINATION":53.1585,"RA_OF_ASC_NODE":181.0071,"ARG_OF_PERICENTER":110.6634,"MEAN_ANOMALY":117.0328,"EPHEMERIS_TYPE":0,"CLASSIFICATION_TYPE":"U","NORAD_CAT_ID":68553,"ELEMENT_SET_NO":999,"REV_AT_EPOCH":390,"BSTAR":0.00073172473,"MEAN_MOTION_DOT":0.00145306,"MEAN_MOTION_DDOT":0},{"OBJECT_NAME":"STARLINK-37255","OBJECT_ID":"2026-070N","EPOCH":"2026-04-19T06:00:02.000160","MEAN_MOTION":15.80748979,"ECCENTRICITY":0.00010732,"INCLINATION":53.1584,"RA_OF_ASC_NODE":180.9985,"ARG_OF_PERICENTER":62.3286,"MEAN_ANOMALY":169.6339,"EPHEMERIS_TYPE":0,"CLASSIFICATION_TYPE":"U","NORAD_CAT_ID":68554,"ELEMENT_SET_NO":999,"REV_AT_EPOCH":390,"BSTAR":0.0005706316,"MEAN_MOTION_DOT":0.00112757,"MEAN_MOTION_DDOT":0},{"OBJECT_NAME":"STARLINK-37146","OBJECT_ID":"2026-070P","EPOCH":"2026-04-19T06:00:02.000160","MEAN_MOTION":15.807389,"ECCENTRICITY":0.00012374,"INCLINATION":53.1586,"RA_OF_ASC_NODE":181.0162,"ARG_OF_PERICENTER":109.6654,"MEAN_ANOMALY":113.7477,"EPHEMERIS_TYPE":0,"CLASSIFICATION_TYPE":"U","NORAD_CAT_ID":68555,"ELEMENT_SET_NO":999,"REV_AT_EPOCH":390,"BSTAR":0.00084664539,"MEAN_MOTION_DOT":0.00168657,"MEAN_MOTION_DDOT":0},{"OBJECT_NAME":"STARLINK-37144","OBJECT_ID":"2026-070Q","EPOCH":"2026-04-19T06:00:02.000160","MEAN_MOTION":15.80748381,"ECCENTRICITY":0.00011516,"INCLINATION":53.1585,"RA_OF_ASC_NODE":180.9808,"ARG_OF_PERICENTER":72.9424,"MEAN_ANOMALY":167.5604,"EPHEMERIS_TYPE":0,"CLASSIFICATION_TYPE":"U","NORAD_CAT_ID":68556,"ELEMENT_SET_NO":999,"REV_AT_EPOCH":390,"BSTAR":0.00052918838,"MEAN_MOTION_DOT":0.00104413,"MEAN_MOTION_DDOT":0},{"OBJECT_NAME":"STARLINK-37210","OBJECT_ID":"2026-070R","EPOCH":"2026-04-19T06:00:02.000160","MEAN_MOTION":15.80739511,"ECCENTRICITY":0.00013801,"INCLINATION":53.1586,"RA_OF_ASC_NODE":180.9902,"ARG_OF_PERICENTER":128.4217,"MEAN_ANOMALY":107.8022,"EPHEMERIS_TYPE":0,"CLASSIFICATION_TYPE":"U","NORAD_CAT_ID":68557,"ELEMENT_SET_NO":999,"REV_AT_EPOCH":390,"BSTAR":0.00086056082,"MEAN_MOTION_DOT":0.00171502,"MEAN_MOTION_DDOT":0},{"OBJECT_NAME":"STARLINK-37227","OBJECT_ID":"2026-070S","EPOCH":"2026-04-19T06:00:02.000160","MEAN_MOTION":15.80731394,"ECCENTRICITY":0.0001255,"INCLINATION":53.1587,"RA_OF_ASC_NODE":180.9717,"ARG_OF_PERICENTER":109.1155,"MEAN_ANOMALY":135.6586,"EPHEMERIS_TYPE":0,"CLASSIFICATION_TYPE":"U","NORAD_CAT_ID":68558,"ELEMENT_SET_NO":999,"REV_AT_EPOCH":390,"BSTAR":0.00087337578,"MEAN_MOTION_DOT":0.00174053,"MEAN_MOTION_DDOT":0},{"OBJECT_NAME":"STARLINK-37294","OBJECT_ID":"2026-070T","EPOCH":"2026-04-19T06:00:02.000160","MEAN_MOTION":15.80746485,"ECCENTRICITY":0.00018111,"INCLINATION":53.1621,"RA_OF_ASC_NODE":180.9635,"ARG_OF_PERICENTER":72.8647,"MEAN_ANOMALY":176.1716,"EPHEMERIS_TYPE":0,"CLASSIFICATION_TYPE":"U","NORAD_CAT_ID":68559,"ELEMENT_SET_NO":999,"REV_AT_EPOCH":390,"BSTAR":0.00069311122,"MEAN_MOTION_DOT":0.00137494,"MEAN_MOTION_DDOT":0}]
