STARLINK-37263          
1 68544U 26070C   26109.25002315  .00180004  00000+0  89908-3 0  9997
2 68544  53.1585 181.0874 0001178 110.1712  79.1042 15.80813755  3903
STARLINK-37289          
1 68545U 26070D   26109.25002315  .00126715  00000+0  64030-3 0  9996
2 68545  53.1585 181.0963 0001450  55.6919 129.2745 15.80731468  3905
STARLINK-37290          
1 68546U 26070E   26109.25002315  .00162918  00000+0  81855-3 0  9996
2 68546  53.1583 181.0785 0001379  71.2178 122.3020 15.80737709  3901
STARLINK-37245          
1 68547U 26070F   26109.25002315  .00105088  00000+0  53251-3 0  9991
2 68547  53.1584 181.0609 0001261  67.2273 134.8290 15.80749506  3904
STARLINK-37145          
1 68548U 26070G   26109.25002315  .00109205  00000+0  55295-3 0  9997
2 68548  53.1585 181.0697 0001189  94.3163 103.4519 15.80750631  3908
STARLINK-36204          
1 68549U 26070H   26109.25002315  .00105850  00000+0  53636-3 0  9997
2 68549  53.1584 181.0522 0001370  75.6595 130.6665 15.80747193  3855
STARLINK-36304          
1 68550U 26070J   26109.25002315  .00151707  00000+0  76310-3 0  9995
2 68550  53.1584 181.0343 0001459  47.9178 166.9520 15.80747798  3858
STARLINK-37288          
1 68551U 26070K   26109.25002315  .00157244  00000+0  79038-3 0  9998
2 68551  53.1584 181.0253 0001438 104.6727 114.4610 15.80745947  3905
STARLINK-37295          
1 68552U 26070L   26109.25002315  .00155381  00000+0  78119-3 0  9998
2 68552  53.1583 181.0433 0001212 103.7058 106.8827 15.80747037  3909
STARLINK-37254          
1 68553U 26070M   26109.25002315  .00145306  00000+0  73172-3 0  9999
2 68553  53.1585 181.0071 0001183 110.6634 117.0328 15.80744042  3907
STARLINK-37255          
1 68554U 26070N   26109.25002315  .00112757  00000+0  57063-3 0  9995
2 68554  53.1584 180.9985 0001073  62.3286 169.6339 15.80748979  3901
STARLINK-37146          
1 68555U 26070P   26109.25002315  .00168657  00000+0  84665-3 0  9994
2 68555  53.1586 181.0162 0001237 109.6654 113.7477 15.80738900  3905
STARLINK-37144          
1 68556U 26070Q   26109.25002315  .00104413  00000+0  52919-3 0  9992
2 68556  53.1585 180.9808 0001151  72.9424 167.5604 15.80748381  3905
STARLINK-37210          
1 68557U 26070R   26109.25002315  .00171502  00000+0  86056-3 0  9995
2 68557  53.1586 180.9902 0001380 128.4217 107.8022 15.80739511  3909
STARLINK-37227          
1 68558U 26070S   26109.25002315  .00174053  00000+0  87338-3 0  9994
2 68558  53.1587 180.9717 0001255 109.1155 135.6586 15.80731394  3908
STARLINK-37294          
1 68559U 26070T   26109.25002315  .00137494  00000+0  69311-3 0  9994
2 68559  53.1621 180.9635 0001811  72.8647 176.1716 15.80746485  3909
